SWARM A                 
1 39452U 13067B   26162.60605966  .00009873  00000+0  17040-3 0  9996
2 39452  87.3335  58.3146 0002988  93.5959 266.5644 15.50840754705383
SWARM C                 
1 39453U 13067C   26162.60594114  .00009921  00000+0  17122-3 0  9994
2 39453  87.3334  56.8959 0002982  93.8449 266.3153 15.50843302705340
BRITE-CA1 (TORONTO)     
1 40020U 14033L   26162.33043879  .00000569  00000+0  93437-4 0  9990
2 40020  97.9731 291.3666 0077352 296.0994  63.2268 14.72668490641353
OCO 2                   
1 40059U 14035A   26162.59323899  .00000338  00000+0  85128-4 0  9997
2 40059  98.2018 103.9715 0001489  86.2364 273.9005 14.57106716635238
BRITE-PL2 (HEWELIUSZ)   
1 40119U 14049B   26162.61554126  .00001285  00000+0  12409-3 0  9994
2 40119  97.9092 274.5729 0015129 124.9359 235.3285 14.94576660640613
MMS 1                   
1 40482U 15011A   26162.66668981 -.00000068  00000+0  00000+0 0  9996
2 40482  72.0925 348.8654 8320466 167.3572  95.2144  0.28369966  1390
MMS 2                   
1 40483U 15011B   26162.66668981 -.00000068  00000+0  00000+0 0  9997
2 40483  72.0947 348.8667 8321287 167.3613  95.2104  0.28371037  1395
MMS 3                   
1 40484U 15011C   26162.66668981 -.00000068  00000+0  00000+0 0  9998
2 40484  72.0978 348.8712 8320472 167.3558  95.2064  0.28370986  1391
MMS 4                   
1 40485U 15011D   26162.66668981 -.00000068  00000+0  00000+0 0  9999
2 40485  72.0918 348.8679 8320041 167.3651  95.1870  0.28369923  1397
ASTROSAT                
1 40930U 15052A   26162.57502532  .00001469  00000+0  97077-4 0  9998
2 40930   5.9952 195.7536 0008428 312.7700  47.1719 14.82498090578998
DAMPE                   
1 41173U 15078A   26162.61210211  .00001178  00000+0  42141-4 0  9990
2 41173  97.4561 168.0516 0013793  94.4091 265.8726 15.30770741583699
PISAT                   
1 41784U 16059B   26162.55851390  .00000816  00000+0  14650-3 0  9991
2 41784  97.8179 163.2532 0027956 221.2985 138.6107 14.68974238518919
HXMT (HUIYAN)           
1 42758U 17034A   26162.54311590  .00003875  00000+0  19424-3 0  9991
2 42758  43.0133 214.4686 0030215 110.0181 250.3925 15.18441281496804
FLYING LAPTOP           
1 42831U 17042G   26162.65287334  .00003083  00000+0  24442-3 0  9999
2 42831  97.4660 318.3997 0019326 139.6985 220.5677 15.01109878485628
ZHANGHENG 1-01 (CSES-1) 
1 43194U 18015C   26162.61199382  .00006631  00000+0  30348-3 0  9998
2 43194  97.6861 328.1597 0017076 287.4020  72.5348 15.20740260463794
SALSAT                  
1 46495U 20068K   26162.58556221  .00006923  00000+0  24314-3 0  9991
2 46495  97.8849 165.3093 0008525 331.4069  28.6701 15.29719030314502
IXPE                    
1 49954U 21121A   26162.66668981  .00009858  00000+0  53032-3 0  9990
2 49954   0.2308 359.1613 0007392 357.4284  99.8524 15.10201025  5647
SMILE                   
1 69123U 26109A   26144.65318427 -.00001976  00000+0 -42379-3 0  9994
2 69123  70.0007 229.2745 0009123 259.5159 100.4951 14.57062785   802
