OBJECT_NAME,OBJECT_ID,EPOCH,MEAN_MOTION,ECCENTRICITY,INCLINATION,RA_OF_ASC_NODE,ARG_OF_PERICENTER,MEAN_ANOMALY,EPHEMERIS_TYPE,CLASSIFICATION_TYPE,NORAD_CAT_ID,ELEMENT_SET_NO,REV_AT_EPOCH,BSTAR,MEAN_MOTION_DOT,MEAN_MOTION_DDOT
SWARM A,2013-067B,2026-06-11T14:32:43.554624,15.50840754,.00029887,87.3335,58.3146,93.5959,266.5644,0,U,39452,999,70538,.17040054E-3,.9873E-4,0
SWARM C,2013-067C,2026-06-11T14:32:33.314496,15.50843302,.0002982,87.3334,56.8959,93.8449,266.3153,0,U,39453,999,70534,.17121582E-3,.9921E-4,0
BRITE-CA1 (TORONTO),2014-033L,2026-06-11T07:55:49.911456,14.72668490,.00773521,97.9731,291.3666,296.0994,63.2268,0,U,40020,999,64135,.93436829E-4,.569E-5,0
OCO 2,2014-035A,2026-06-11T14:14:15.848736,14.57106716,.00014897,98.2018,103.9715,86.2364,273.9005,0,U,40059,999,63523,.85127939E-4,.338E-5,0
BRITE-PL2 (HEWELIUSZ),2014-049B,2026-06-11T14:46:22.764864,14.94576660,.00151292,97.9092,274.5729,124.9359,235.3285,0,U,40119,999,64061,.12409236E-3,.1285E-4,0
MMS 1,2015-011A,2026-06-11T16:00:01.999584,0.28369966,.83204664,72.0925,348.8654,167.3572,95.2144,0,U,40482,999,139,0,-.68E-6,0
MMS 2,2015-011B,2026-06-11T16:00:01.999584,0.28371037,.83212873,72.0947,348.8667,167.3613,95.2104,0,U,40483,999,139,0,-.68E-6,0
MMS 3,2015-011C,2026-06-11T16:00:01.999584,0.28370986,.8320472,72.0978,348.8712,167.3558,95.2064,0,U,40484,999,139,0,-.68E-6,0
MMS 4,2015-011D,2026-06-11T16:00:01.999584,0.28369923,.83200414,72.0918,348.8679,167.3651,95.1870,0,U,40485,999,139,0,-.68E-6,0
ASTROSAT,2015-052A,2026-06-11T13:48:02.187648,14.82498090,.00084289,5.9952,195.7536,312.7700,47.1719,0,U,40930,999,57899,.97076729E-4,.1469E-4,0
DAMPE,2015-078A,2026-06-11T14:41:25.622304,15.30770741,.00137939,97.4561,168.0516,94.4091,265.8726,0,U,41173,999,58369,.42140954E-4,.1178E-4,0
PISAT,2016-059B,2026-06-11T13:24:15.600960,14.68974238,.00279565,97.8179,163.2532,221.2985,138.6107,0,U,41784,999,51891,.14650373E-3,.816E-5,0
HXMT (HUIYAN),2017-034A,2026-06-11T13:02:05.213760,15.18441281,.0030215,43.0133,214.4686,110.0181,250.3925,0,U,42758,999,49680,.19424243E-3,.3875E-4,0
FLYING LAPTOP,2017-042G,2026-06-11T15:40:08.256576,15.01109878,.00193265,97.4660,318.3997,139.6985,220.5677,0,U,42831,999,48562,.24442084E-3,.3083E-4,0
ZHANGHENG 1-01 (CSES-1),2018-015C,2026-06-11T14:41:16.266048,15.20740260,.00170767,97.6861,328.1597,287.4020,72.5348,0,U,43194,999,46379,.30347741E-3,.6631E-4,0
SALSAT,2020-068K,2026-06-11T14:03:12.574944,15.29719030,.00085257,97.8849,165.3093,331.4069,28.6701,0,U,46495,999,31450,.24314384E-3,.6923E-4,0
IXPE,2021-121A,2026-06-11T16:00:01.999584,15.10201025,.00073928,0.2308,359.1613,357.4284,99.8524,0,U,49954,999,564,.53032404E-3,.9858E-4,0
SMILE,2026-109A,2026-05-24T15:40:35.120928,14.57062785,.00091232,70.0007,229.2745,259.5159,100.4951,0,U,69123,999,80,-.42378883E-3,-.1976E-4,0
